[{"OBJECT_NAME":"STARLINK-30427","OBJECT_ID":"2023-144B","EPOCH":"2026-03-08T16:14:13.384320","MEAN_MOTION":15.27578133,"ECCENTRICITY":0.00014763,"INCLINATION":43.0007,"RA_OF_ASC_NODE":290.8198,"ARG_OF_PERICENTER":234.3471,"MEAN_ANOMALY":125.7243,"EPHEMERIS_TYPE":0,"CLASSIFICATION_TYPE":"U","NORAD_CAT_ID":57865,"ELEMENT_SET_NO":999,"REV_AT_EPOCH":13744,"BSTAR":1.0829603e-5,"MEAN_MOTION_DOT":3.6e-7,"MEAN_MOTION_DDOT":0},{"OBJECT_NAME":"WT 1B","OBJECT_ID":"2019-032G","EPOCH":"2026-03-09T21:42:21.881088","MEAN_MOTION":15.25021485,"ECCENTRICITY":0.0008099,"INCLINATION":44.9738,"RA_OF_ASC_NODE":242.0209,"ARG_OF_PERICENTER":49.7728,"MEAN_ANOMALY":310.3861,"EPHEMERIS_TYPE":0,"CLASSIFICATION_TYPE":"U","NORAD_CAT_ID":44316,"ELEMENT_SET_NO":999,"REV_AT_EPOCH":37191,"BSTAR":0.00065022477,"MEAN_MOTION_DOT":0.00016297,"MEAN_MOTION_DDOT":0}]
